CCSDS_OMM_VERS = 2.0
CREATION_DATE  = 
ORIGINATOR     = 

OBJECT_NAME    = FLOCK 4H-34
OBJECT_ID      = 2025-276BZ
CENTER_NAME    = EARTH
REF_FRAME      = TEME
TIME_SYSTEM    = UTC
MEAN_ELEMENT_THEORY = SGP/SGP4

EPOCH          = 2025-12-27T05:35:18.323808
MEAN_MOTION    = 15.18209548
ECCENTRICITY   = .00027391
INCLINATION    = 97.4433
RA_OF_ASC_NODE = 72.7865
ARG_OF_PERICENTER = 156.2486
MEAN_ANOMALY   = 203.8875

EPHEMERIS_TYPE = 0
CLASSIFICATION_TYPE = U
NORAD_CAT_ID   = 66737
ELEMENT_SET_NO = 999
REV_AT_EPOCH   = 357
BSTAR          = .5112847E-3
MEAN_MOTION_DOT = .10399E-3
MEAN_MOTION_DDOT = 0

CCSDS_OMM_VERS = 2.0
CREATION_DATE  = 
ORIGINATOR     = 

OBJECT_NAME    = FLOCK 4H-35
OBJECT_ID      = 2025-276CA
CENTER_NAME    = EARTH
REF_FRAME      = TEME
TIME_SYSTEM    = UTC
MEAN_ELEMENT_THEORY = SGP/SGP4

EPOCH          = 2025-12-27T05:32:33.850176
MEAN_MOTION    = 15.18302679
ECCENTRICITY   = .00026764
INCLINATION    = 97.4395
RA_OF_ASC_NODE = 72.7739
ARG_OF_PERICENTER = 140.0561
MEAN_ANOMALY   = 220.0871

EPHEMERIS_TYPE = 0
CLASSIFICATION_TYPE = U
NORAD_CAT_ID   = 66738
ELEMENT_SET_NO = 999
REV_AT_EPOCH   = 361
BSTAR          = .53560663E-3
MEAN_MOTION_DOT = .10927E-3
MEAN_MOTION_DDOT = 0

CCSDS_OMM_VERS = 2.0
CREATION_DATE  = 
ORIGINATOR     = 

OBJECT_NAME    = FLOCK 4H-36
OBJECT_ID      = 2025-276CB
CENTER_NAME    = EARTH
REF_FRAME      = TEME
TIME_SYSTEM    = UTC
MEAN_ELEMENT_THEORY = SGP/SGP4

EPOCH          = 2025-12-27T05:39:25.149600
MEAN_MOTION    = 15.18054709
ECCENTRICITY   = .00027382
INCLINATION    = 97.4442
RA_OF_ASC_NODE = 72.7866
ARG_OF_PERICENTER = 171.1617
MEAN_ANOMALY   = 188.9666

EPHEMERIS_TYPE = 0
CLASSIFICATION_TYPE = U
NORAD_CAT_ID   = 66739
ELEMENT_SET_NO = 999
REV_AT_EPOCH   = 432
BSTAR          = .53139432E-3
MEAN_MOTION_DOT = .10763E-3
MEAN_MOTION_DDOT = 0

CCSDS_OMM_VERS = 2.0
CREATION_DATE  = 
ORIGINATOR     = 

OBJECT_NAME    = TRANSPORTER-15CC
OBJECT_ID      = 2025-276CC
CENTER_NAME    = EARTH
REF_FRAME      = TEME
TIME_SYSTEM    = UTC
MEAN_ELEMENT_THEORY = SGP/SGP4

EPOCH          = 2025-12-27T05:47:26.267136
MEAN_MOTION    = 15.17782071
ECCENTRICITY   = .00023936
INCLINATION    = 97.4403
RA_OF_ASC_NODE = 72.7682
ARG_OF_PERICENTER = 215.0560
MEAN_ANOMALY   = 145.0517

EPHEMERIS_TYPE = 0
CLASSIFICATION_TYPE = U
NORAD_CAT_ID   = 66740
ELEMENT_SET_NO = 999
REV_AT_EPOCH   = 432
BSTAR          = .52505031E-3
MEAN_MOTION_DOT = .1055E-3
MEAN_MOTION_DDOT = 0

CCSDS_OMM_VERS = 2.0
CREATION_DATE  = 
ORIGINATOR     = 

OBJECT_NAME    = TRANSPORTER-15CD
OBJECT_ID      = 2025-276CD
CENTER_NAME    = EARTH
REF_FRAME      = TEME
TIME_SYSTEM    = UTC
MEAN_ELEMENT_THEORY = SGP/SGP4

EPOCH          = 2025-12-27T05:49:15.766176
MEAN_MOTION    = 15.17661307
ECCENTRICITY   = .00013056
INCLINATION    = 97.4403
RA_OF_ASC_NODE = 72.7580
ARG_OF_PERICENTER = 203.3782
MEAN_ANOMALY   = 156.7393

EPHEMERIS_TYPE = 0
CLASSIFICATION_TYPE = U
NORAD_CAT_ID   = 66741
ELEMENT_SET_NO = 999
REV_AT_EPOCH   = 432
BSTAR          = .21590549E-3
MEAN_MOTION_DOT = .4281E-4
MEAN_MOTION_DDOT = 0

CCSDS_OMM_VERS = 2.0
CREATION_DATE  = 
ORIGINATOR     = 

OBJECT_NAME    = TRANSPORTER-15CE
OBJECT_ID      = 2025-276CE
CENTER_NAME    = EARTH
REF_FRAME      = TEME
TIME_SYSTEM    = UTC
MEAN_ELEMENT_THEORY = SGP/SGP4

EPOCH          = 2025-12-27T05:46:43.150944
MEAN_MOTION    = 15.17755097
ECCENTRICITY   = .0002079
INCLINATION    = 97.4396
RA_OF_ASC_NODE = 72.7579
ARG_OF_PERICENTER = 175.6518
MEAN_ANOMALY   = 184.4734

EPHEMERIS_TYPE = 0
CLASSIFICATION_TYPE = U
NORAD_CAT_ID   = 66742
ELEMENT_SET_NO = 999
REV_AT_EPOCH   = 432
BSTAR          = .51774967E-3
MEAN_MOTION_DOT = .10394E-3
MEAN_MOTION_DDOT = 0

CCSDS_OMM_VERS = 2.0
CREATION_DATE  = 
ORIGINATOR     = 

OBJECT_NAME    = TRANSPORTER-15CF
OBJECT_ID      = 2025-276CF
CENTER_NAME    = EARTH
REF_FRAME      = TEME
TIME_SYSTEM    = UTC
MEAN_ELEMENT_THEORY = SGP/SGP4

EPOCH          = 2025-12-27T04:17:38.961024
MEAN_MOTION    = 15.17575270
ECCENTRICITY   = .0000931
INCLINATION    = 97.4396
RA_OF_ASC_NODE = 72.6874
ARG_OF_PERICENTER = 198.1721
MEAN_ANOMALY   = 161.9479

EPHEMERIS_TYPE = 0
CLASSIFICATION_TYPE = U
NORAD_CAT_ID   = 66743
ELEMENT_SET_NO = 999
REV_AT_EPOCH   = 431
BSTAR          = .39742552E-3
MEAN_MOTION_DOT = .7919E-4
MEAN_MOTION_DDOT = 0

CCSDS_OMM_VERS = 2.0
CREATION_DATE  = 
ORIGINATOR     = 

OBJECT_NAME    = TRANSPORTER-15CG
OBJECT_ID      = 2025-276CG
CENTER_NAME    = EARTH
REF_FRAME      = TEME
TIME_SYSTEM    = UTC
MEAN_ELEMENT_THEORY = SGP/SGP4

EPOCH          = 2025-12-27T07:19:09.166944
MEAN_MOTION    = 15.19396478
ECCENTRICITY   = .00244677
INCLINATION    = 97.3864
RA_OF_ASC_NODE = 72.7849
ARG_OF_PERICENTER = 223.8381
MEAN_ANOMALY   = 136.0913

EPHEMERIS_TYPE = 0
CLASSIFICATION_TYPE = U
NORAD_CAT_ID   = 66744
ELEMENT_SET_NO = 999
REV_AT_EPOCH   = 433
BSTAR          = .65514069E-3
MEAN_MOTION_DOT = .13922E-3
MEAN_MOTION_DDOT = 0

CCSDS_OMM_VERS = 2.0
CREATION_DATE  = 
ORIGINATOR     = 

OBJECT_NAME    = TRANSPORTER-15CH
OBJECT_ID      = 2025-276CH
CENTER_NAME    = EARTH
REF_FRAME      = TEME
TIME_SYSTEM    = UTC
MEAN_ELEMENT_THEORY = SGP/SGP4

EPOCH          = 2025-12-27T05:53:37.759488
MEAN_MOTION    = 15.17421643
ECCENTRICITY   = .00014256
INCLINATION    = 97.4404
RA_OF_ASC_NODE = 72.7549
ARG_OF_PERICENTER = 184.9719
MEAN_ANOMALY   = 175.1501

EPHEMERIS_TYPE = 0
CLASSIFICATION_TYPE = U
NORAD_CAT_ID   = 66745
ELEMENT_SET_NO = 999
REV_AT_EPOCH   = 432
BSTAR          = .15843563E-3
MEAN_MOTION_DOT = .3101E-4
MEAN_MOTION_DDOT = 0

CCSDS_OMM_VERS = 2.0
CREATION_DATE  = 
ORIGINATOR     = 

OBJECT_NAME    = TRANSPORTER-15CJ
OBJECT_ID      = 2025-276CJ
CENTER_NAME    = EARTH
REF_FRAME      = TEME
TIME_SYSTEM    = UTC
MEAN_ELEMENT_THEORY = SGP/SGP4

EPOCH          = 2025-12-27T05:46:44.191200
MEAN_MOTION    = 15.19504664
ECCENTRICITY   = .00134953
INCLINATION    = 97.3829
RA_OF_ASC_NODE = 72.7797
ARG_OF_PERICENTER = 189.5913
MEAN_ANOMALY   = 170.5066

EPHEMERIS_TYPE = 0
CLASSIFICATION_TYPE = U
NORAD_CAT_ID   = 66746
ELEMENT_SET_NO = 999
REV_AT_EPOCH   = 432
BSTAR          = .90326898E-3
MEAN_MOTION_DOT = .1919E-3
MEAN_MOTION_DDOT = 0

CCSDS_OMM_VERS = 2.0
CREATION_DATE  = 
ORIGINATOR     = 

OBJECT_NAME    = W-SERIES 5
OBJECT_ID      = 2025-276CK
CENTER_NAME    = EARTH
REF_FRAME      = TEME
TIME_SYSTEM    = UTC
MEAN_ELEMENT_THEORY = SGP/SGP4

EPOCH          = 2025-12-27T05:50:21.047424
MEAN_MOTION    = 15.17581839
ECCENTRICITY   = .0001667
INCLINATION    = 97.4405
RA_OF_ASC_NODE = 72.7596
ARG_OF_PERICENTER = 185.6769
MEAN_ANOMALY   = 174.4446

EPHEMERIS_TYPE = 0
CLASSIFICATION_TYPE = U
NORAD_CAT_ID   = 66747
ELEMENT_SET_NO = 999
REV_AT_EPOCH   = 432
BSTAR          = .47350048E-3
MEAN_MOTION_DOT = .9451E-4
MEAN_MOTION_DDOT = 0

CCSDS_OMM_VERS = 2.0
CREATION_DATE  = 
ORIGINATOR     = 

OBJECT_NAME    = TRANSPORTER-15CL
OBJECT_ID      = 2025-276CL
CENTER_NAME    = EARTH
REF_FRAME      = TEME
TIME_SYSTEM    = UTC
MEAN_ELEMENT_THEORY = SGP/SGP4

EPOCH          = 2025-12-27T05:33:33.639840
MEAN_MOTION    = 15.18688860
ECCENTRICITY   = .00022043
INCLINATION    = 97.4398
RA_OF_ASC_NODE = 72.7728
ARG_OF_PERICENTER = 205.1504
MEAN_ANOMALY   = 154.9623

EPHEMERIS_TYPE = 0
CLASSIFICATION_TYPE = U
NORAD_CAT_ID   = 66748
ELEMENT_SET_NO = 999
REV_AT_EPOCH   = 432
BSTAR          = .10947457E-2
MEAN_MOTION_DOT = .22689E-3
MEAN_MOTION_DDOT = 0

