FLOCK 4H-34             
1 66737U 25276BZ  25361.23285097  .00010399  00000+0  51128-3 0  9995
2 66737  97.4433  72.7865 0002739 156.2486 203.8875 15.18209548  3570
FLOCK 4H-35             
1 66738U 25276CA  25361.23094734  .00010927  00000+0  53561-3 0  9992
2 66738  97.4395  72.7739 0002676 140.0561 220.0871 15.18302679  3614
FLOCK 4H-36             
1 66739U 25276CB  25361.23570775  .00010763  00000+0  53139-3 0  9996
2 66739  97.4442  72.7866 0002738 171.1617 188.9666 15.18054709  4326
TRANSPORTER-15CC        
1 66740U 25276CC  25361.24127624  .00010550  00000+0  52505-3 0  9990
2 66740  97.4403  72.7682 0002393 215.0560 145.0517 15.17782071  4321
TRANSPORTER-15CD        
1 66741U 25276CD  25361.24254359  .00004281  00000+0  21591-3 0  9992
2 66741  97.4403  72.7580 0001305 203.3782 156.7393 15.17661307  4326
TRANSPORTER-15CE        
1 66742U 25276CE  25361.24077721  .00010394  00000+0  51775-3 0  9998
2 66742  97.4396  72.7579 0002079 175.6518 184.4734 15.17755097  4320
TRANSPORTER-15CF        
1 66743U 25276CF  25361.17892316  .00007919  00000+0  39743-3 0  9996
2 66743  97.4396  72.6874 0000931 198.1721 161.9479 15.17575270  4317
TRANSPORTER-15CG        
1 66744U 25276CG  25361.30496721  .00013922  00000+0  65514-3 0  9998
2 66744  97.3864  72.7849 0024467 223.8381 136.0913 15.19396478  4339
TRANSPORTER-15CH        
1 66745U 25276CH  25361.24557592  .00003101  00000+0  15844-3 0  9995
2 66745  97.4404  72.7549 0001425 184.9719 175.1501 15.17421643  4326
TRANSPORTER-15CJ        
1 66746U 25276CJ  25361.24078925  .00019190  00000+0  90327-3 0  9998
2 66746  97.3829  72.7797 0013495 189.5913 170.5066 15.19504664  4321
W-SERIES 5              
1 66747U 25276CK  25361.24329916  .00009451  00000+0  47350-3 0  9995
2 66747  97.4405  72.7596 0001667 185.6769 174.4446 15.17581839  4326
TRANSPORTER-15CL        
1 66748U 25276CL  25361.23163935  .00022689  00000+0  10947-2 0  9991
2 66748  97.4398  72.7728 0002204 205.1504 154.9623 15.18688860  4321
